{"type": "FeatureCollection", "features": [ {"type": "Feature", "properties": {"norad_id": 66413, "name": "HULIANWANG DIGUI 13B", "group": "last-30-days", "lat": -49.93171077415973, "lon": -148.9872931242944, "alt_km": 812.5573594326052, "timestamp": "2025-12-02T15:49:05.948084+00:00", "meta": {"OBJECT_NAME": "HULIANWANG DIGUI 13B", "OBJECT_ID": "2025-258B", "EPOCH": "2025-12-02T07:49:30.091008", "MEAN_MOTION": 14.23481506, "ECCENTRICITY": 0.00133924, "INCLINATION": 50.0009, "RA_OF_ASC_NODE": 305.864, "ARG_OF_PERICENTER": 321.7901, "MEAN_ANOMALY": 38.2062, "EPHEMERIS_TYPE": 0, "CLASSIFICATION_TYPE": "U", "NORAD_CAT_ID": 66413, "ELEMENT_SET_NO": 999, "REV_AT_EPOCH": 317, "BSTAR": 8.1244901e-05, "MEAN_MOTION_DOT": 2.7e-07, "MEAN_MOTION_DDOT": 0}, "tle": {"line1": "1 66413U 25258B   25336.32604272  .00000027  00000+0  81245-4 0  9999", "line2": "2 66413  50.0009 305.8640 0013392 321.7901  38.2062 14.23481506  3179"}}, "geometry": {"type": "Point", "coordinates": [-148.9872931242944, -49.93171077415973]}}, {"type": "Feature", "properties": {"norad_id": 66414, "name": "HULIANWANG DIGUI 13C", "group": "last-30-days", "lat": -48.03018033941319, "lon": -124.51557179856843, "alt_km": 810.1447397222682, "timestamp": "2025-12-02T15:49:05.948096+00:00", "meta": {"OBJECT_NAME": "HULIANWANG DIGUI 13C", "OBJECT_ID": "2025-258C", "EPOCH": "2025-12-02T07:44:59.165664", "MEAN_MOTION": 14.23507164, "ECCENTRICITY": 0.00135846, "INCLINATION": 50.0046, "RA_OF_ASC_NODE": 305.8619, "ARG_OF_PERICENTER": 320.0716, "MEAN_ANOMALY": 39.9197, "EPHEMERIS_TYPE": 0, "CLASSIFICATION_TYPE": "U", "NORAD_CAT_ID": 66414, "ELEMENT_SET_NO": 999, "REV_AT_EPOCH": 317, "BSTAR": 0.00010364125, "MEAN_MOTION_DOT": 7.8e-07, "MEAN_MOTION_DDOT": 0}, "tle": {"line1": "1 66414U 25258C   25336.32290701  .00000078  00000+0  10364-3 0  9997", "line2": "2 66414  50.0046 305.8619 0013584 320.0716  39.9197 14.23507164  3172"}}, "geometry": {"type": "Point", "coordinates": [-124.51557179856843, -48.03018033941319]}}, {"type": "Feature", "properties": {"norad_id": 66415, "name": "HULIANWANG DIGUI 13D", "group": "last-30-days", "lat": -33.2559797744403, "lon": -89.01699228914266, "alt_km": 807.9086160574661, "timestamp": "2025-12-02T15:49:05.948108+00:00", "meta": {"OBJECT_NAME": "HULIANWANG DIGUI 13D", "OBJECT_ID": "2025-258D", "EPOCH": "2025-12-02T07:36:27.510048", "MEAN_MOTION": 14.234954, "ECCENTRICITY": 0.00133929, "INCLINATION": 50.0042, "RA_OF_ASC_NODE": 305.8264, "ARG_OF_PERICENTER": 326.8111, "MEAN_ANOMALY": 33.1961, "EPHEMERIS_TYPE": 0, "CLASSIFICATION_TYPE": "U", "NORAD_CAT_ID": 66415, "ELEMENT_SET_NO": 999, "REV_AT_EPOCH": 317, "BSTAR": 0.00013084593, "MEAN_MOTION_DOT": 1.4e-06, "MEAN_MOTION_DDOT": 0}, "tle": {"line1": "1 66415U 25258D   25336.31698507  .00000140  00000+0  13085-3 0  9996", "line2": "2 66415  50.0042 305.8264 0013392 326.8111  33.1961 14.23495400  3179"}}, "geometry": {"type": "Point", "coordinates": [-89.01699228914266, -33.2559797744403]}}, {"type": "Feature", "properties": {"norad_id": 66416, "name": "HULIANWANG DIGUI 13E", "group": "last-30-days", "lat": -44.99333299131611, "lon": -112.63535563483875, "alt_km": 810.5588431816122, "timestamp": "2025-12-02T15:49:05.948120+00:00", "meta": {"OBJECT_NAME": "HULIANWANG DIGUI 13E", "OBJECT_ID": "2025-258E", "EPOCH": "2025-12-02T04:20:20.565312", "MEAN_MOTION": 14.23468154, "ECCENTRICITY": 0.0012751, "INCLINATION": 50.0045, "RA_OF_ASC_NODE": 306.4445, "ARG_OF_PERICENTER": 327.4493, "MEAN_ANOMALY": 32.5632, "EPHEMERIS_TYPE": 0, "CLASSIFICATION_TYPE": "U", "NORAD_CAT_ID": 66416, "ELEMENT_SET_NO": 999, "REV_AT_EPOCH": 315, "BSTAR": 0.00010445686, "MEAN_MOTION_DOT": 8e-07, "MEAN_MOTION_DDOT": 0}, "tle": {"line1": "1 66416U 25258E   25336.18079358  .00000080  00000+0  10446-3 0  9990", "line2": "2 66416  50.0045 306.4445 0012751 327.4493  32.5632 14.23468154  3151"}}, "geometry": {"type": "Point", "coordinates": [-112.63535563483875, -44.99333299131611]}}, {"type": "Feature", "properties": {"norad_id": 66417, "name": "HULIANWANG DIGUI 13F", "group": "last-30-days", "lat": -41.77539649841568, "lon": -104.20059604426334, "alt_km": 809.8992652527277, "timestamp": "2025-12-02T15:49:05.948131+00:00", "meta": {"OBJECT_NAME": "HULIANWANG DIGUI 13F", "OBJECT_ID": "2025-258F", "EPOCH": "2025-12-02T07:40:35.083200", "MEAN_MOTION": 14.23476143, "ECCENTRICITY": 0.00123778, "INCLINATION": 49.9997, "RA_OF_ASC_NODE": 305.8246, "ARG_OF_PERICENTER": 326.205, "MEAN_ANOMALY": 33.8073, "EPHEMERIS_TYPE": 0, "CLASSIFICATION_TYPE": "U", "NORAD_CAT_ID": 66417, "ELEMENT_SET_NO": 999, "REV_AT_EPOCH": 317, "BSTAR": 0.00011880035, "MEAN_MOTION_DOT": 1.13e-06, "MEAN_MOTION_DDOT": 0}, "tle": {"line1": "1 66417U 25258F   25336.31985050  .00000113  00000+0  11880-3 0  9991", "line2": "2 66417  49.9997 305.8246 0012377 326.2050  33.8073 14.23476143  3179"}}, "geometry": {"type": "Point", "coordinates": [-104.20059604426334, -41.77539649841568]}}, {"type": "Feature", "properties": {"norad_id": 66418, "name": "HULIANWANG DIGUI 13G", "group": "last-30-days", "lat": -28.78368410309753, "lon": -83.11051225841892, "alt_km": 808.0180187195601, "timestamp": "2025-12-02T15:49:05.948156+00:00", "meta": {"OBJECT_NAME": "HULIANWANG DIGUI 13G", "OBJECT_ID": "2025-258G", "EPOCH": "2025-12-02T07:34:33.616704", "MEAN_MOTION": 14.23487475, "ECCENTRICITY": 0.00125057, "INCLINATION": 50.0007, "RA_OF_ASC_NODE": 305.8041, "ARG_OF_PERICENTER": 322.1472, "MEAN_ANOMALY": 37.8561, "EPHEMERIS_TYPE": 0, "CLASSIFICATION_TYPE": "U", "NORAD_CAT_ID": 66418, "ELEMENT_SET_NO": 999, "REV_AT_EPOCH": 317, "BSTAR": 0.00013630867, "MEAN_MOTION_DOT": 1.53e-06, "MEAN_MOTION_DDOT": 0}, "tle": {"line1": "1 66418U 25258G   25336.31566686  .00000153  00000+0  13631-3 0  9992", "line2": "2 66418  50.0007 305.8041 0012505 322.1472  37.8561 14.23487475  3170"}}, "geometry": {"type": "Point", "coordinates": [-83.11051225841892, -28.78368410309753]}}, {"type": "Feature", "properties": {"norad_id": 66419, "name": "HULIANWANG DIGUI 13H", "group": "last-30-days", "lat": -23.51561097697402, "lon": -77.08808673364865, "alt_km": 807.9058758035071, "timestamp": "2025-12-02T15:49:05.948168+00:00", "meta": {"OBJECT_NAME": "HULIANWANG DIGUI 13H", "OBJECT_ID": "2025-258H", "EPOCH": "2025-12-02T07:32:26.898144", "MEAN_MOTION": 14.23504745, "ECCENTRICITY": 0.00120562, "INCLINATION": 50.0005, "RA_OF_ASC_NODE": 305.7927, "ARG_OF_PERICENTER": 323.1241, "MEAN_ANOMALY": 36.8842, "EPHEMERIS_TYPE": 0, "CLASSIFICATION_TYPE": "U", "NORAD_CAT_ID": 66419, "ELEMENT_SET_NO": 999, "REV_AT_EPOCH": 317, "BSTAR": 0.00013864058, "MEAN_MOTION_DOT": 1.58e-06, "MEAN_MOTION_DDOT": 0}, "tle": {"line1": "1 66419U 25258H   25336.31420021  .00000158  00000+0  13864-3 0  9998", "line2": "2 66419  50.0005 305.7927 0012056 323.1241  36.8842 14.23504745  3178"}}, "geometry": {"type": "Point", "coordinates": [-77.08808673364865, -23.51561097697402]}}, {"type": "Feature", "properties": {"norad_id": 66420, "name": "HULIANWANG DIGUI 13J", "group": "last-30-days", "lat": -19.151905862554262, "lon": -72.61190974333613, "alt_km": 808.0575217259047, "timestamp": "2025-12-02T15:49:05.948178+00:00", "meta": {"OBJECT_NAME": "HULIANWANG DIGUI 13J", "OBJECT_ID": "2025-258J", "EPOCH": "2025-12-02T07:30:44.714592", "MEAN_MOTION": 14.23472286, "ECCENTRICITY": 0.00114612, "INCLINATION": 50.0026, "RA_OF_ASC_NODE": 305.7969, "ARG_OF_PERICENTER": 330.388, "MEAN_ANOMALY": 29.6383, "EPHEMERIS_TYPE": 0, "CLASSIFICATION_TYPE": "U", "NORAD_CAT_ID": 66420, "ELEMENT_SET_NO": 999, "REV_AT_EPOCH": 316, "BSTAR": 0.00013790136, "MEAN_MOTION_DOT": 1.56e-06, "MEAN_MOTION_DDOT": 0}, "tle": {"line1": "1 66420U 25258J   25336.31301753  .00000156  00000+0  13790-3 0  9996", "line2": "2 66420  50.0026 305.7969 0011461 330.3880  29.6383 14.23472286  3160"}}, "geometry": {"type": "Point", "coordinates": [-72.61190974333613, -19.151905862554262]}}, {"type": "Feature", "properties": {"norad_id": 66421, "name": "CZ-12 R/B", "group": "last-30-days", "lat": -47.907147976668604, "lon": -126.68673646549688, "alt_km": 740.1042856124277, "timestamp": "2025-12-02T15:49:05.948189+00:00", "meta": {"OBJECT_NAME": "CZ-12 R/B", "OBJECT_ID": "2025-258K", "EPOCH": "2025-12-02T07:51:19.789632", "MEAN_MOTION": 14.42315787, "ECCENTRICITY": 0.00645749, "INCLINATION": 49.9959, "RA_OF_ASC_NODE": 303.1294, "ARG_OF_PERICENTER": 211.9853, "MEAN_ANOMALY": 147.714, "EPHEMERIS_TYPE": 0, "CLASSIFICATION_TYPE": "U", "NORAD_CAT_ID": 66421, "ELEMENT_SET_NO": 999, "REV_AT_EPOCH": 321, "BSTAR": 2.9462945e-05, "MEAN_MOTION_DOT": -7.1e-07, "MEAN_MOTION_DDOT": 0}, "tle": {"line1": "1 66421U 25258K   25336.32731238 -.00000071  00000+0  29463-4 0  9995", "line2": "2 66421  49.9959 303.1294 0064574 211.9853 147.7140 14.42315787  3215"}}, "geometry": {"type": "Point", "coordinates": [-126.68673646549688, -47.907147976668604]}}, {"type": "Feature", "properties": {"norad_id": 66422, "name": "STARLINK-35617", "group": "last-30-days", "lat": 42.04738240032964, "lon": -178.25620386780898, "alt_km": 409.2832170585234, "timestamp": "2025-12-02T15:49:05.948199+00:00", "meta": {"OBJECT_NAME": "STARLINK-35617", "OBJECT_ID": "2025-259A", "EPOCH": "2025-12-02T06:00:02.999808", "MEAN_MOTION": 15.50515392, "ECCENTRICITY": 0.00014475, "INCLINATION": 42.999, "RA_OF_ASC_NODE": 108.694, "ARG_OF_PERICENTER": 253.3899, "MEAN_ANOMALY": 59.7506, "EPHEMERIS_TYPE": 0, "CLASSIFICATION_TYPE": "U", "NORAD_CAT_ID": 66422, "ELEMENT_SET_NO": 999, "REV_AT_EPOCH": 459, "BSTAR": 0.001620497, "MEAN_MOTION_DOT": 0.00095678, "MEAN_MOTION_DDOT": 0}, "tle": {"line1": "1 66422U 25259A   25336.25003472  .00095678  00000+0  16205-2 0  9995", "line2": "2 66422  42.9990 108.6940 0001447 253.3899  59.7506 15.50515392  4594"}}, "geometry": {"type": "Point", "coordinates": [-178.25620386780898, 42.04738240032964]}}]}